import czml3
import numpy as np
from czml3 import Document,Packet
import datetime
import random
from sgp4.io import twoline2rv
from sgp4.earth_gravity import wgs72
from datetime import datetime, timedelta
import sys
import math
import re

# 定义地面站类
class Station:
    def __init__(self, id, name, description, position_x, position_y, position_z):
        # 地面站属性
        self.id = id    #id
        self.name = name    #name
        self.description = description  #description
        self.position_x = position_x    #笛卡尔坐标（X）
        self.position_y = position_y    #笛卡尔坐标（Y）
        self.position_z = position_z    #笛卡尔坐标（Z）

#定义卫星类
class Satelite:
    #初始化
    def __init__(self,name,number,category,launch_time,e,Perigee_angle,
                 Perihelion_angle,circuits_day,line1,line2):

        self.name = name    # 名
        self.number = number    # 编号
        self.category = category    # 卫星类别
        self.launch_time = launch_time  # 发射年份
        self.e = e  # 轨道偏心率
        self.Perigee_angle = Perigee_angle  # 近地幅角
        self.Perihelion_angle = Perihelion_angle    # 平近地角
        self.circuits_day = circuits_day    # 每天绕地球圈数
        self.line1=line1
        self.line2=line2

    #html化卫星description
    def to_Description(self):
        head=f"<div><h1 >卫星属性一览</h1></div>"
        table=f"<table>" \
              f"<tr><td>卫星名：</td><td>{self.name}</td></tr>" \
              f"<tr><td>卫星编号：</td><td>{self.number}</td></tr>" \
              f"<tr><td>卫星类别：</td><td>{self.category}</td></tr>" \
              f"<tr><td>发射年份：</td><td>{self.launch_time}</td></tr>" \
              f"<tr><td>轨道偏心率：</td><td>{self.e}</td></tr>" \
              f"<tr><td>近地幅角：</td><td>{self.Perigee_angle}</td></tr>" \
              f"<tr><td>平近地角：</td><td>{self.Perihelion_angle}</td></tr>" \
              f"<tr><td>绕地球圈数/天：</td><td>{self.circuits_day}</td></tr>" \
              "</table>"

        tle=f"<div><p>{self.line1}</p><p>{self.line2}</p></div>"

        description=head+table+tle
        return description

ID_color1=[184, 7, 43, 155]
Vis_color2=[131, 79, 186, 155]
# 宽度
sate_width1 = 1
Vis_width2 = 1
# tle or 六参数
tleORsix = 1
#卫星实体
satellite_entity=[]
#各大导航卫星的tle
Iridium=r'''IRIDIUM 7
1 24793U 97020B   24145.94221896  .00000739  00000+0  25167-3 0  9992
2 24793  86.3953 339.5728 0002013  81.6332 278.5092 14.35226750416196
IRIDIUM 5
1 24795U 97020D   24145.81019409  .00008917  00000+0  84483-3 0  9997
2 24795  86.3924 261.7073 0124090  85.6550 275.8842 14.87728208427592
IRIDIUM 4
1 24796U 97020E   24145.89436387  .00000770  00000+0  25773-3 0  9990
2 24796  86.3946 336.7281 0002228  85.1214 275.0237 14.36151671416722
IRIDIUM 914
1 24836U 97030A   24145.91789761  .00000861  00000+0  26713-3 0  9992
2 24836  86.3936 346.4625 0003862  76.2175 283.9453 14.40009183551237'''
GlobalStar=r'''GLOBALSTAR M001
1 25162U 98008A   24150.58388358 -.00000103  00000+0 -46940-4 0  9993
2 25162  52.0058   9.7091 0001922 134.5945 242.2614 12.38184615196195
GLOBALSTAR M004
1 25163U 98008B   24150.38923962 -.00000086  00000+0  10077-3 0  9998
2 25163  51.9970 144.9966 0002863 156.0774 351.5748 12.63360857213176
GLOBALSTAR M002
1 25164U 98008C   24150.34813425 -.00000082  00000+0 -11459-3 0  9999
2 25164  51.9988 122.6087 0000989 159.9837 200.1022 11.61503093139463
GLOBALSTAR M003
1 25165U 98008D   24150.42188789  .00000039  00000+0  13701-2 0  9998
2 25165  51.9840 151.4042 0007972 241.1618 266.9966 12.12006037186688
GLOBALSTAR M014
1 25306U 98023A   24150.58897912 -.00000059  00000+0  35071-3 0  9992
2 25306  51.9864  53.2932 0001453  29.8781  46.1004 11.65468138146440
GLOBALSTAR M006
1 25307U 98023B   24150.26241361 -.00000042  00000+0  68862-3 0  9995
2 25307  51.9935  92.2428 0003556 127.7977  21.2832 11.58164292172341
GLOBALSTAR M015
1 25308U 98023C   24150.36344236 -.00000074  00000+0 -11635-4 0  9995
2 25308  51.9781 172.8729 0012448 114.8455 345.0738 11.48852680149966
GLOBALSTAR M008
1 25309U 98023D   24150.54279966 -.00000096  00000+0  89266-6 0  9993
2 25309  51.9962 230.3134 0002762  96.1995   7.1210 12.36043700190406
GLOBALSTAR M023
1 25621U 99004A   24150.39890876 -.00000071  00000+0  18316-3 0  9990
2 25621  52.0081 142.0468 0010350   0.2924 146.8203 12.62455049167258
GLOBALSTAR M040
1 25622U 99004B   24150.38351778 -.00000083  00000+0  11715-3 0  9992
2 25622  51.9889 145.6809 0000679 289.6265 217.9088 12.61975336166799
GLOBALSTAR M036
1 25623U 99004C   24150.34893649 -.00000074  00000+0  13509-3 0  9990
2 25623  51.9932 172.0077 0011174  34.0093  69.9909 11.86566598133415
GLOBALSTAR M038
1 25624U 99004D   24150.28444267 -.00000070  00000+0  20768-3 0  9993
2 25624  51.9968  97.1400 0002116 345.1170 162.4047 12.32500548155039
GLOBALSTAR M022
1 25649U 99012A   24150.46711032 -.00000080  00000+0  81926-4 0  9991
2 25649  52.0043 254.0125 0003077 131.0821 309.0482 12.02483201130210
GLOBALSTAR M041
1 25650U 99012B   24150.32471424 -.00000068  00000+0  21788-3 0  9991
2 25650  51.9997 124.1448 0002658 290.1607  69.8943 11.96660516132321
GLOBALSTAR M046
1 25651U 99012C   24150.37108972 -.00000134  00000+0 -50482-3 0  9990
2 25651  52.0040 218.4183 0002625 200.3901 252.6687 12.09392227137227
GLOBALSTAR M037
1 25652U 99012D   24150.50360429 -.00000081  00000+0  12680-3 0  9991
2 25652  52.0012 272.4906 0002208  76.3420   1.2275 12.62406776162812
GLOBALSTAR M045
1 25676U 99019A   24150.42462605 -.00000045  00000+0  42708-3 0  9998
2 25676  51.9984 319.0521 0001007 132.7160 242.9338 12.27038435146280
GLOBALSTAR M019
1 25677U 99019B   24150.15448559 -.00000087  00000+0  30037-4 0  9990
2 25677  51.9896  63.1672 0000545 304.4337 203.8183 12.13858288138508
GLOBALSTAR M044
1 25678U 99019C   24150.00568044 -.00000076  00000+0  10933-3 0  9997
2 25678  51.9986 326.8808 0006417  25.9076 151.8239 11.90233262125578
GLOBALSTAR M042
1 25679U 99019D   24150.55039826 -.00000043  00000+0  46215-3 0  9995
2 25679  52.0037  53.9495 0002279 224.8504 199.2963 12.22062452138353
GLOBALSTAR M025
1 25770U 99031A   24150.51382562 -.00000068  00000+0 -25509-4 0  9997
2 25770  51.9838 328.0739 0001283 193.0586 202.6926 11.22550695438621
GLOBALSTAR M049
1 25771U 99031B   24150.55258653 -.00000078  00000+0 -43546-3 0  9996
2 25771  51.9899 343.4684 0003483  90.8962 269.2233 11.12109453 74745
GLOBALSTAR M047
1 25772U 99031C   24150.09829210 -.00000055  00000+0  39700-3 0  9990
2 25772  51.9866  18.1614 0016148 325.8992  34.0776 11.31921011427616
GLOBALSTAR M052
1 25773U 99031D   24150.30712959 -.00000075  00000+0 -32255-3 0  9997
2 25773  51.9859  98.0951 0002599 265.1343 265.1809 11.15051493435681
GLOBALSTAR M035
1 25851U 99037A   24150.41619500 -.00000057  00000+0  24778-3 0  9990
2 25851  51.9919 190.8040 0013099  81.1858  19.2914 11.04530893 53853
GLOBALSTAR M032
1 25852U 99037B   24150.06129002 -.00000021  00000+0  14740-2 0  9993
2 25852  51.9981  43.2956 0009341 239.6792 120.3084 11.19053308 91785
GLOBALSTAR M051
1 25853U 99037C   24150.57307623 -.00000045  00000+0  65877-3 0  9991
2 25853  51.9793 246.3077 0001425 228.6918 131.3770 11.42197835 88555
GLOBALSTAR M030
1 25854U 99037D   24150.21472850 -.00000108  00000+0 -69626-3 0  9995
2 25854  51.9886  77.6906 0004198  76.7713 283.3572 11.55095607105679
GLOBALSTAR M048
1 25872U 99041A   24150.37703159 -.00000078  00000+0 -20864-3 0  9993
2 25872  51.9330 166.9733 0013754 241.1779 223.9156 11.33846685 81443
GLOBALSTAR M026
1 25873U 99041B   24150.60228756 -.00000123  00000+0 -21605-2 0  9999
2 25873  52.0029 312.3849 0001037 358.1818  80.0514 11.06835421106017
GLOBALSTAR M043
1 25874U 99041C   24150.58281003 -.00000111  00000+0 -12700-2 0  9994
2 25874  51.9404 258.8403 0012106  19.7438  77.9373 11.25680558 79679
GLOBALSTAR M028
1 25875U 99041D   24150.59310647 -.00000068  00000+0  21057-3 0  9999
2 25875  51.9628 256.8513 0062820 318.4787  41.1312 12.50556411142184
GLOBALSTAR M024
1 25883U 99043A   24150.47334712 -.00000135  00000+0 -25013-2 0  9997
2 25883  51.9973 166.4078 0001614 207.6117 323.6962 11.10157740 72243
GLOBALSTAR M027
1 25884U 99043B   24150.54185406 -.00000094  00000+0 -11344-2 0  9996
2 25884  52.0205 233.3677 0021508  93.1363 267.1891 11.04368473 98856
GLOBALSTAR M054
1 25885U 99043C   24150.18517260 -.00000063  00000+0  20068-3 0  9993
2 25885  52.0155  65.8993 0004259 244.4208 264.9611 11.39203421 75289
GLOBALSTAR M053
1 25886U 99043D   24150.01345562 -.00000053  00000+0  44231-3 0  9997
2 25886  52.0010 352.0951 0003924 139.2887  30.5944 11.27655438 76101
GLOBALSTAR M058
1 25907U 99049A   24150.13455076 -.00000033  00000+0  69152-3 0  9999
2 25907  51.9961  54.6773 0001867 269.0299  91.0321 11.93179980495694
GLOBALSTAR M050
1 25908U 99049B   24150.02979014 -.00000157  00000+0 -77662-3 0  9994
2 25908  51.9991  91.3324 0009504 348.2097  93.0575 12.07434805101783
GLOBALSTAR M033
1 25909U 99049C   24149.94680124 -.00000093  00000+0 -17884-4 0  9995
2 25909  51.9935 349.9366 0011857 193.9010 166.1512 12.20273706488837
GLOBALSTAR M055
1 25910U 99049D   24150.02696888 -.00000070  00000+0  21077-3 0  9994
2 25910  52.0044  19.1525 0007813  56.3702 303.7895 12.29402052121038
GLOBALSTAR M057
1 25943U 99058A   24150.55859495 -.00000104  00000+0 -10267-3 0  9991
2 25943  52.0010 356.9025 0001531 318.4729  41.6004 12.24787737119999
GLOBALSTAR M059
1 25944U 99058B   24150.34879142 -.00000077  00000+0  11256-3 0  9997
2 25944  51.9986 165.5636 0000620 272.7231 188.5375 11.99962490527964
GLOBALSTAR M056
1 25945U 99058C   24150.48663556 -.00000044  00000+0  50451-3 0  9997
2 25945  51.9929 177.0034 0000867 146.7734  25.2600 12.04775795116377
GLOBALSTAR M031
1 25946U 99058D   24150.24131632 -.00000034  00000+0  57072-3 0  9992
2 25946  51.9961  92.9786 0001547  99.7888  48.5128 12.16009709117839
GLOBALSTAR M039
1 25961U 99062A   24150.53205331 -.00000048  00000+0  31013-3 0  9996
2 25961  51.9867 357.2222 0002290 199.2020 160.8761 12.62292941131765
GLOBALSTAR M034
1 25962U 99062B   24150.55104781 -.00000102  00000+0 -33298-3 0  9995
2 25962  51.9885 288.6031 0013948  40.0576  39.1445 11.79429001 93122
